      2.10          N: GNSS NAV DATA                        RINEX VERSION / TYPE
fic2rin                                 12/08/2023 00:17:48 PGM / RUN BY / DATE
                                                            END OF HEADER
8  23 12  7  1 59 44.0 -.155712477863D-03 -.193267624127D-11  .000000000000D+00
     .700000000000D+01 -.103125000000D+01  .490449000598D-08  .254018201632D+01
     .000000000000D+00  .903545948677D-02  .452809035778D-05  .515378964615D+04
     .352784000000D+06 -.173225998878D-06 -.220937919751D+01 -.353902578354D-07
     .955820781635D+00  .290875000000D+03  .283902202078D+00 -.829927426951D-08
    -.115361948145D-09  .100000000000D+01  .229100000000D+04  .000000000000D+00
     .240000000000D+01  .000000000000D+00  .512227416039D-08  .700000000000D+01
     .345600000000D+06  .400000000000D+01
3  23 12  7  2  0  0.0  .363667495549D-04  .272848410532D-10  .000000000000D+00
     .120000000000D+02  .693750000000D+01  .416731644260D-08 -.687673292947D+00
     .296160578728D-06  .505933305249D-02  .745058059692D-05  .515355338478D+04
     .352800000000D+06 -.651925802231D-07 -.820623443060D-01  .800937414169D-07
     .982163156889D+00  .246906250000D+03  .111047698606D+01 -.796711757671D-08
     .213580325049D-09  .100000000000D+01  .229100000000D+04  .000000000000D+00
     .240000000000D+01  .000000000000D+00  .186264514923D-08  .120000000000D+02
     .345600000000D+06  .400000000000D+01
2  23 12  7  2  0  0.0 -.519080553204D-03  .522959453519D-11  .000000000000D+00
     .370000000000D+02 -.388125000000D+02  .427732102473D-08  .304621923231D+01
    -.186450779438D-05  .162370137405D-01  .841915607452D-05  .515391355515D+04
     .352800000000D+06  .311061739922D-06 -.121378089064D+01  .167638063431D-06
     .967467923882D+00  .214156250000D+03 -.129505132813D+01 -.778353850134D-08
    -.136791412197D-09  .100000000000D+01  .229100000000D+04  .000000000000D+00
     .240000000000D+01  .000000000000D+00 -.176951289177D-07  .370000000000D+02
     .345600000000D+06  .400000000000D+01
1  23 12  7  2  0  0.0  .163653865457D-03  .454747350886D-12  .000000000000D+00
     .340000000000D+02 -.303750000000D+02  .390016245742D-08  .424398035367D+00
    -.143423676491D-05  .129940189654D-01  .871159136295D-05  .515402601814D+04
     .352800000000D+06 -.100582838058D-06 -.111087538986D+01  .122934579849D-06
     .990406235058D+00  .227500000000D+03  .999693039445D+00 -.795747431789D-08
    -.173221501085D-09  .100000000000D+01  .229100000000D+04  .000000000000D+00
     .340000000000D+01  .630000000000D+02  .512227416039D-08  .340000000000D+02
     .345600000000D+06  .400000000000D+01
7  23 12  7  2  0  0.0 -.542309135199D-05 -.966338120634D-11  .000000000000D+00
     .710000000000D+02 -.375000000000D+01  .474984070707D-08 -.263893188325D+00
    -.353902578354D-07  .176767120138D-01  .995211303234D-05  .515369531441D+04
     .352800000000D+06 -.279396772385D-07  .201168795012D+01  .277534127235D-06
     .950018029298D+00  .185968750000D+03 -.216369297395D+01 -.837106297409D-08
    -.521450291926D-10  .100000000000D+01  .229100000000D+04  .000000000000D+00
     .240000000000D+01  .000000000000D+00 -.111758708954D-07  .710000000000D+02
     .345600000000D+06  .400000000000D+01
5  23 12  7  2  0  0.0 -.153157860041D-03 -.147792889038D-11  .000000000000D+00
     .660000000000D+02  .884375000000D+01  .440982654412D-08  .291001145768D+01
     .465661287308D-06  .583002658095D-02  .683404505253D-05  .515376699829D+04
     .352800000000D+06  .838190317154D-07 -.131128784920D+00 -.186264514923D-07
     .969160246534D+00  .251937500000D+03  .123895939753D+01 -.794747390133D-08
     .216080429189D-09  .100000000000D+01  .229100000000D+04  .000000000000D+00
     .240000000000D+01  .000000000000D+00 -.111758708954D-07  .660000000000D+02
     .345600000000D+06  .400000000000D+01
19 23 12  7 15 59 44.0  .409237574786D-03  .522959453519D-11  .000000000000D+00
     .120000000000D+02 -.148125000000D+02  .443054169270D-08 -.542967277978D+00
    -.709667801857D-06  .936244952027D-02  .426359474659D-05  .515366651535D+04
     .403184000000D+06 -.931322574615D-07 -.207330415929D+01 -.247731804848D-06
     .970565410071D+00  .307062500000D+03  .245513561172D+01 -.825891544555D-08
    -.157863718515D-09  .100000000000D+01  .229100000000D+04  .000000000000D+00
     .240000000000D+01  .000000000000D+00 -.153668224812D-07  .120000000000D+02
     .396000000000D+06  .400000000000D+01
2  23 12  7 16  0  0.0 -.518814660609D-03  .522959453519D-11  .000000000000D+00
     .740000000000D+02 -.472500000000D+02  .406659796156D-08 -.217031397879D+01
    -.216066837311D-05  .162377749803D-01  .853650271893D-05  .515391098213D+04
     .403200000000D+06  .180676579475D-06 -.121418122988D+01  .251457095146D-06
     .967464611836D+00  .212656250000D+03 -.129464757737D+01 -.774460830831D-08
    -.101075638777D-09  .100000000000D+01  .229100000000D+04  .000000000000D+00
     .240000000000D+01  .000000000000D+00 -.176951289177D-07  .740000000000D+02
     .396000000000D+06  .400000000000D+01
1  23 12  7 16  0  0.0  .163675285876D-03  .454747350886D-12  .000000000000D+00
     .940000000000D+02 -.565937500000D+02  .361086469272D-08  .149079775613D+01
    -.297464430332D-05  .129989755806D-01  .937469303608D-05  .515403068161D+04
     .403200000000D+06 -.249594449997D-06 -.111126502785D+01 -.335276126862D-07
     .990404682902D+00  .216656250000D+03  .999823584403D+00 -.781782564382D-08
    -.130362572982D-09  .100000000000D+01  .229100000000D+04  .000000000000D+00
     .485000000000D+01  .630000000000D+02  .512227416039D-08  .940000000000D+02
     .396000000000D+06  .400000000000D+01
8  23 12  7 16  0  0.0 -.155800487846D-03 -.193267624127D-11  .000000000000D+00
     .180000000000D+02 -.187500000000D+01  .480805741775D-08 -.267311771280D+01
    -.113621354103D-06  .904030096717D-02  .407174229622D-05  .515378813362D+04
     .403200000000D+06 -.670552253723D-07 -.220980099190D+01 -.726431608200D-07
     .955814221910D+00  .300218750000D+03  .283953461264D+00 -.833641867387D-08
    -.147148986489D-09  .100000000000D+01  .229100000000D+04  .000000000000D+00
     .240000000000D+01  .000000000000D+00  .512227416039D-08  .180000000000D+02
     .396000000000D+06  .400000000000D+01
5  23 12  7 16  0  0.0 -.153230968863D-03 -.147792889038D-11  .000000000000D+00
     .910000000000D+02  .843750000000D+01  .424517682865D-08 -.230545446983D+01
     .320374965668D-06  .582593900617D-02  .793114304543D-05  .515377078819D+04
     .403200000000D+06  .502914190292D-07 -.131533183754D+00  .111758708954D-07
     .969177772293D+00  .225656250000D+03  .123891091350D+01 -.787282793488D-08
     .427160650099D-09  .100000000000D+01  .229100000000D+04  .000000000000D+00
     .240000000000D+01  .000000000000D+00 -.111758708954D-07  .910000000000D+02
     .396000000000D+06  .400000000000D+01
3  23 12  7 16  0  0.0  .377404503524D-04  .272848410532D-10  .000000000000D+00
     .940000000000D+02  .393750000000D+01  .405695470273D-08  .380998496128D+00
    -.372529029846D-08  .505745352712D-02  .825151801109D-05  .515355258751D+04
     .403200000000D+06 -.428408384323D-07 -.824613098617D-01  .167638063431D-07
     .982181259038D+00  .233593750000D+03  .111038677961D+01 -.790390065776D-08
     .406088343781D-09  .100000000000D+01  .229100000000D+04  .000000000000D+00
     .340000000000D+01  .000000000000D+00  .186264514923D-08  .940000000000D+02
     .396000000000D+06  .400000000000D+01
7  23 12  7 16  0  0.0 -.591902062297D-05 -.977706804406D-11  .000000000000D+00
     .620000000000D+02 -.950000000000D+01  .490020411317D-08  .803924429216D+00
    -.275671482086D-06  .176806447562D-01  .106487423182D-04  .515369814491D+04
     .403200000000D+06 -.197440385818D-06  .201128284324D+01  .106170773506D-06
     .950006451765D+00  .173656250000D+03 -.216352282780D+01 -.840820737844D-08
    -.377158567311D-09  .100000000000D+01  .229100000000D+04  .000000000000D+00
     .240000000000D+01  .000000000000D+00 -.111758708954D-07  .620000000000D+02
     .396000000000D+06  .400000000000D+01
17 23 12  7 16  0  0.0  .722340773791D-03 -.454747350886D-12  .000000000000D+00
     .300000000000D+01 -.634375000000D+01  .436161025000D-08 -.259015994267D+01
    -.214204192162D-06  .138108182000D-01  .374950468540D-05  .515362838554D+04
     .403200000000D+06  .193715095520D-06 -.211774092208D+01  .502914190292D-07
     .971454217653D+00  .314250000000D+03 -.136457889733D+01 -.794104506212D-08
    -.185722021782D-09  .100000000000D+01  .229100000000D+04  .000000000000D+00
     .240000000000D+01  .000000000000D+00 -.111758708954D-07  .300000000000D+01
     .396000000000D+06  .400000000000D+01
21 23 12  7 16  0  0.0  .142214354128D-03 -.113686837722D-11  .000000000000D+00
     .900000000000D+01 -.485625000000D+02  .409981363084D-08 -.263195963616D+01
    -.216066837311D-05  .250086843735D-01  .914931297302D-05  .515375087166D+04
     .403200000000D+06 -.104308128357D-06 -.122035098447D+01  .344589352608D-06
     .961744982505D+00  .199437500000D+03 -.672886494435D+00 -.764638993140D-08
    -.121076471892D-09  .100000000000D+01  .229100000000D+04  .000000000000D+00
     .240000000000D+01  .000000000000D+00 -.102445483208D-07  .900000000000D+01
     .396000000000D+06  .400000000000D+01
12 23 12  7 16  0  0.0 -.454976689070D-03 -.397903932026D-11  .000000000000D+00
     .800000000000D+02  .810000000000D+02  .457233331318D-08  .128560554697D+00
     .418722629547D-05  .878737925086D-02  .702776014805D-05  .515375032997D+04
     .403200000000D+06 -.121071934700D-06  .312630254982D+01  .633299350739D-07
     .964130023200D+00  .246250000000D+03  .139626183936D+01 -.825927260328D-08
     .478591363823D-10  .100000000000D+01  .229100000000D+04  .000000000000D+00
     .240000000000D+01  .000000000000D+00 -.125728547573D-07  .800000000000D+02
     .396000000000D+06  .400000000000D+01
